OBJECT_NAME,OBJECT_ID,EPOCH,MEAN_MOTION,ECCENTRICITY,INCLINATION,RA_OF_ASC_NODE,ARG_OF_PERICENTER,MEAN_ANOMALY,EPHEMERIS_TYPE,CLASSIFICATION_TYPE,NORAD_CAT_ID,ELEMENT_SET_NO,REV_AT_EPOCH,BSTAR,MEAN_MOTION_DOT,MEAN_MOTION_DDOT
CUBEBUG-2 (LO-74),2013-066AA,2026-06-05T09:46:25.749408,14.93663570,.0059444,97.8908,105.3367,67.2888,293.4600,0,U,39440,999,67523,.50135E-3,.5426E-4,0
FUNCUBE-1 (AO-73),2013-066AE,2026-06-05T17:17:36.504096,15.09347901,.0034657,97.8279,127.9286,241.2535,118.5210,0,U,39444,999,67793,.47823E-3,.7673E-4,0
UWE-3,2013-066AG,2026-06-05T09:13:47.311968,14.96928204,.0049229,97.8699,112.3806,1.0820,359.0498,0,U,39446,999,67581,.3727E-3,.4324E-4,0
UNISAT-6,2014-033C,2026-06-05T16:52:35.679072,14.88181134,.0046454,97.7873,309.6189,106.0536,254.5803,0,U,40012,999,64445,.43462E-3,.4032E-4,0
DUCHIFAT-1,2014-033M,2026-06-05T10:29:13.596288,15.62240333,.0004709,98.0469,213.9697,135.9979,224.1653,0,U,40021,999,65391,.10321E-2,.91631E-3,0
QB50P1,2014-033R,2026-06-05T06:52:12.859680,15.18070423,.0007025,98.0971,166.5996,264.5036,95.5395,0,U,40025,999,65122,.39735E-3,.8026E-4,0
LILACSAT-2,2015-049K,2026-06-05T09:40:28.706592,15.51038852,.0005343,97.4655,192.7995,302.5632,57.5104,0,U,40908,999,59392,.29144E-3,.16866E-3,0
FOX-1A (AO-85),2015-058D,2026-06-04T22:38:39.056640,14.90905473,.01298043,64.7764,317.0315,61.3870,300.0228,0,U,40967,999,11174,.31879391E-3,.3528E-4,0
CAS-2T & KS-1Q,2016-066G,2026-06-05T11:11:03.727968,14.44654069,.0342355,98.3816,232.3358,164.9515,196.2178,0,U,41847,999,50310,.25737E-3,.1782E-4,0
RADFXSAT (FOX-1B),2017-073E,2026-06-05T08:48:23.724000,15.12507922,.0151376,97.4713,23.8246,10.1794,350.2442,0,U,43017,999,46360,.4044E-3,.9261E-4,0
DIWATA-2B,2018-084H,2026-06-05T18:23:07.664352,15.00395632,.0011829,98.1158,352.4795,208.3130,151.7451,0,U,43678,999,41450,.20016E-3,.2452E-4,0
ES'HAIL 2,2018-090A,2026-06-05T15:20:59.362080,1.00273110,.0001956,0.0169,6.1871,102.4053,41.5169,0,U,43700,999,2756,0,.157E-5,0
FOX-1CLIFF (AO-95),2018-099N,2026-06-05T01:58:43.175424,15.26442922,.0009283,97.4389,216.3757,40.1659,320.0264,0,U,43770,999,41137,.4228E-3,.10962E-3,0
ITASAT,2018-099AE,2026-06-05T08:40:51.938400,15.18900130,.0013338,97.4030,208.1104,40.5492,319.6733,0,U,43786,999,41111,.3577E-3,.7415E-4,0
JY1SAT (JO-97),2018-099AX,2026-06-05T02:08:09.513600,15.33253592,.0004294,97.4134,218.8851,322.9431,37.1514,0,U,43803,999,41177,.49499E-3,.15845E-3,0
UWE-4,2018-111E,2026-06-05T01:04:33.820032,15.45332944,.00078982,97.5859,83.8833,27.7618,332.4050,0,U,43880,999,40890,.73225046E-3,.34971E-3,0
TIANYAN 01,2019-093C,2026-06-05T16:03:08.227008,14.86498213,.001472,97.7530,229.1812,121.1593,239.1068,0,U,44881,999,34970,.61627E-4,.493E-5,0
RS-44 & BREEZE-KM R/B,2019-096E,2026-06-05T06:40:14.837664,12.79748568,.021764,82.5219,347.6205,171.9532,188.5155,0,U,44909,999,30082,-.15917E-4,.8E-7,0
SALSAT,2020-068K,2026-06-04T23:29:13.611264,15.29615280,.0009245,97.8851,158.3021,356.4519,3.6652,0,U,46495,999,31349,.3129959E-3,.8911E-4,0
XW-3 (CAS-9),2021-131B,2026-06-05T17:44:30.480288,14.41347137,.0005092,98.4977,249.1911,122.6525,237.5156,0,U,50466,999,23346,.19414E-3,.584E-5,0
GREENCUBE (IO-117),2022-080E,2026-06-01T11:09:37.753056,6.42583280,.00088692,70.1435,303.7143,293.3663,66.6064,0,U,53109,999,9105,0,-.3E-7,0
UMKA 1 (RS40S),2023-091G,2026-06-05T17:03:24.048000,15.20682241,.0013615,97.5051,215.4529,153.9596,206.2326,0,U,57172,999,16226,.3536E-3,.7719E-4,0
CUBESX-HSE 3 (RS42S),2023-091N,2026-06-05T14:32:25.491840,15.30909781,.0012038,97.5091,222.0491,130.4685,229.7608,0,U,57178,999,16265,.49411E-3,.14723E-3,0
MONITOR-3 (RS58S),2023-091Q,2026-06-05T12:56:53.397024,15.27595956,.0012904,97.5082,219.9019,136.9838,223.2412,0,U,57180,999,16251,.43026E-3,.11568E-3,0
MONITOR-4 (RS57S),2023-091S,2026-06-05T15:36:21.618144,15.27696670,.0012889,97.5077,219.9840,136.9568,223.2681,0,U,57182,999,16253,.42704E-3,.11516E-3,0
MONITOR-2 (RS39S),2023-091U,2026-06-05T17:13:24.669696,15.18799840,.0012189,97.5073,215.0752,146.5913,213.6092,0,U,57184,999,16221,.29609E-3,.6103E-4,0
SVYATOBOR 1 (RS60S),2023-091X,2026-06-05T17:15:29.553984,15.26414198,.0010794,97.5089,220.4741,128.9922,231.2279,0,U,57187,999,16256,.42331E-3,.1097E-3,0
VIZARD-METEO (RS38S),2023-091Z,2026-06-05T14:46:23.705760,15.35641651,.0008751,97.5090,225.8719,111.8357,248.3818,0,U,57189,999,16291,.51824E-3,.17918E-3,0
POLYTECH-UNIVERSE 3 (RS46S),2023-091AB,2026-06-05T14:45:02.202048,15.18998833,.0016067,97.5048,214.4776,164.2404,195.9334,0,U,57191,999,16219,.26401E-3,.5473E-4,0
UTMN 2 (RS27S),2023-091AP,2026-06-05T15:06:54.395136,15.31755831,.0009476,97.5087,223.6931,118.1220,242.0980,0,U,57203,999,16277,.44656E-3,.13641E-3,0
